{
  "type": "FeatureCollection",
  "features": [
    {
      "type": "Feature",
      "properties": {
        "norad_id": 44334,
        "name": "EUTELSAT 7C",
        "group": "eutelsat",
        "lat": 0.019893783901927625,
        "lon": -132.65841563075477,
        "alt_km": 35772.276037667856,
        "timestamp": "2025-12-04T09:47:37.194027+00:00",
        "meta_object_name": "EUTELSAT 7C",
        "meta_object_id": "2019-034B",
        "meta_epoch": "2025-12-04T00:46:38.554752",
        "meta_mean_motion": 1.00269518,
        "meta_eccentricity": 0.0003447,
        "meta_inclination": 0.0762,
        "meta_ra_of_asc_node": 180.0814,
        "meta_arg_of_pericenter": 56.4016,
        "meta_mean_anomaly": 215.2751,
        "meta_ephemeris_type": 0,
        "meta_classification_type": "U",
        "meta_norad_cat_id": 44334,
        "meta_element_set_no": 999,
        "meta_rev_at_epoch": 487,
        "meta_bstar": 0,
        "meta_mean_motion_dot": 6.5e-07,
        "meta_mean_motion_ddot": 0,
        "tle_line1": "1 44334U 19034B   25338.03239068  .00000065  00000+0  00000+0 0  9996",
        "tle_line2": "2 44334   0.0762 180.0814 0003447  56.4016 215.2751  1.00269518  4871"
      },
      "geometry": {
        "type": "Point",
        "coordinates": [
          -132.65841563075477,
          0.019893783901927625
        ]
      }
    },
    {
      "type": "Feature",
      "properties": {
        "norad_id": 44624,
        "name": "EUTELSAT 5 WEST B",
        "group": "eutelsat",
        "lat": -0.08870602387306985,
        "lon": -144.64073595422948,
        "alt_km": 35773.508412092386,
        "timestamp": "2025-12-04T09:47:37.194041+00:00",
        "meta_object_name": "EUTELSAT 5 WEST B",
        "meta_object_id": "2019-067A",
        "meta_epoch": "2025-12-03T23:44:38.650272",
        "meta_mean_motion": 1.00272817,
        "meta_eccentricity": 0.000373,
        "meta_inclination": 0.07,
        "meta_ra_of_asc_node": 329.4641,
        "meta_arg_of_pericenter": 284.9373,
        "meta_mean_anomaly": 169.8486,
        "meta_ephemeris_type": 0,
        "meta_classification_type": "U",
        "meta_norad_cat_id": 44624,
        "meta_element_set_no": 999,
        "meta_rev_at_epoch": 2248,
        "meta_bstar": 0,
        "meta_mean_motion_dot": -2.5e-07,
        "meta_mean_motion_ddot": 0,
        "tle_line1": "1 44624U 19067A   25337.98933623 -.00000025  00000+0  00000+0 0  9992",
        "tle_line2": "2 44624   0.0700 329.4641 0003730 284.9373 169.8486  1.00272817 22483"
      },
      "geometry": {
        "type": "Point",
        "coordinates": [
          -144.64073595422948,
          -0.08870602387306985
        ]
      }
    },
    {
      "type": "Feature",
      "properties": {
        "norad_id": 45027,
        "name": "EUTELSAT KONNECT",
        "group": "eutelsat",
        "lat": 0.018737627888901334,
        "lon": -132.47168103530052,
        "alt_km": 35782.894184797886,
        "timestamp": "2025-12-04T09:47:37.194053+00:00",
        "meta_object_name": "EUTELSAT KONNECT",
        "meta_object_id": "2020-005B",
        "meta_epoch": "2025-12-03T18:20:38.512032",
        "meta_mean_motion": 1.00268582,
        "meta_eccentricity": 0.00017852,
        "meta_inclination": 0.0692,
        "meta_ra_of_asc_node": 99.0602,
        "meta_arg_of_pericenter": 186.374,
        "meta_mean_anomaly": 69.7611,
        "meta_ephemeris_type": 0,
        "meta_classification_type": "U",
        "meta_norad_cat_id": 45027,
        "meta_element_set_no": 999,
        "meta_rev_at_epoch": 2236,
        "meta_bstar": 0,
        "meta_mean_motion_dot": 6.6e-07,
        "meta_mean_motion_ddot": 0,
        "tle_line1": "1 45027U 20005B   25337.76433463  .00000066  00000+0  00000+0 0  9991",
        "tle_line2": "2 45027   0.0692  99.0602 0001785 186.3740  69.7611  1.00268582 22368"
      },
      "geometry": {
        "type": "Point",
        "coordinates": [
          -132.47168103530052,
          0.018737627888901334
        ]
      }
    },
    {
      "type": "Feature",
      "properties": {
        "norad_id": 49056,
        "name": "EUTELSAT QUANTUM",
        "group": "eutelsat",
        "lat": -0.034017506942777505,
        "lon": -91.92120259494506,
        "alt_km": 35769.89856162803,
        "timestamp": "2025-12-04T09:47:37.194065+00:00",
        "meta_object_name": "EUTELSAT QUANTUM",
        "meta_object_id": "2021-069B",
        "meta_epoch": "2025-12-03T20:27:38.515104",
        "meta_mean_motion": 1.00271917,
        "meta_eccentricity": 0.00038004,
        "meta_inclination": 0.0193,
        "meta_ra_of_asc_node": 19.889,
        "meta_arg_of_pericenter": 246.5875,
        "meta_mean_anomaly": 161.08,
        "meta_ephemeris_type": 0,
        "meta_classification_type": "U",
        "meta_norad_cat_id": 49056,
        "meta_element_set_no": 999,
        "meta_rev_at_epoch": 1596,
        "meta_bstar": 0,
        "meta_mean_motion_dot": 1.43e-06,
        "meta_mean_motion_ddot": 0,
        "tle_line1": "1 49056U 21069B   25337.85252911  .00000143  00000+0  00000+0 0  9991",
        "tle_line2": "2 49056   0.0193  19.8890 0003800 246.5875 161.0800  1.00271917 15967"
      },
      "geometry": {
        "type": "Point",
        "coordinates": [
          -91.92120259494506,
          -0.034017506942777505
        ]
      }
    },
    {
      "type": "Feature",
      "properties": {
        "norad_id": 53765,
        "name": "EUTELSAT KONNECT VHTS",
        "group": "eutelsat",
        "lat": 0.017651774218190676,
        "lon": -136.95720594717002,
        "alt_km": 35775.18479230694,
        "timestamp": "2025-12-04T09:47:37.194076+00:00",
        "meta_object_name": "EUTELSAT KONNECT VHTS",
        "meta_object_id": "2022-110A",
        "meta_epoch": "2025-12-03T05:12:28.480320",
        "meta_mean_motion": 1.00269007,
        "meta_eccentricity": 0.0002764,
        "meta_inclination": 0.0603,
        "meta_ra_of_asc_node": 107.1016,
        "meta_arg_of_pericenter": 123.1613,
        "meta_mean_anomaly": 282.8564,
        "meta_ephemeris_type": 0,
        "meta_classification_type": "U",
        "meta_norad_cat_id": 53765,
        "meta_element_set_no": 999,
        "meta_rev_at_epoch": 486,
        "meta_bstar": 0,
        "meta_mean_motion_dot": 3.6e-07,
        "meta_mean_motion_ddot": 0,
        "tle_line1": "1 53765U 22110A   25337.21699630  .00000036  00000+0  00000+0 0  9995",
        "tle_line2": "2 53765   0.0603 107.1016 0002764 123.1613 282.8564  1.00269007  4867"
      },
      "geometry": {
        "type": "Point",
        "coordinates": [
          -136.95720594717002,
          0.017651774218190676
        ]
      }
    },
    {
      "type": "Feature",
      "properties": {
        "norad_id": 54048,
        "name": "EUTELSAT HOTBIRD 13F",
        "group": "eutelsat",
        "lat": -0.06575060082656707,
        "lon": -126.64664742220762,
        "alt_km": 35790.32084295405,
        "timestamp": "2025-12-04T09:47:37.194088+00:00",
        "meta_object_name": "EUTELSAT HOTBIRD 13F",
        "meta_object_id": "2022-134A",
        "meta_epoch": "2025-12-02T19:57:38.448864",
        "meta_mean_motion": 1.00271371,
        "meta_eccentricity": 0.00019176,
        "meta_inclination": 0.0542,
        "meta_ra_of_asc_node": 289.0481,
        "meta_arg_of_pericenter": 66.1354,
        "meta_mean_anomaly": 29.1621,
        "meta_ephemeris_type": 0,
        "meta_classification_type": "U",
        "meta_norad_cat_id": 54048,
        "meta_element_set_no": 999,
        "meta_rev_at_epoch": 1140,
        "meta_bstar": 0,
        "meta_mean_motion_dot": 1.07e-06,
        "meta_mean_motion_ddot": 0,
        "tle_line1": "1 54048U 22134A   25336.83169501  .00000107  00000+0  00000+0 0  9991",
        "tle_line2": "2 54048   0.0542 289.0481 0001917  66.1354  29.1621  1.00271371 11408"
      },
      "geometry": {
        "type": "Point",
        "coordinates": [
          -126.64664742220762,
          -0.06575060082656707
        ]
      }
    },
    {
      "type": "Feature",
      "properties": {
        "norad_id": 54225,
        "name": "EUTELSAT HOTBIRD 13G",
        "group": "eutelsat",
        "lat": -0.026309665655170667,
        "lon": -126.61782622101747,
        "alt_km": 35780.139698264786,
        "timestamp": "2025-12-04T09:47:37.194100+00:00",
        "meta_object_name": "EUTELSAT HOTBIRD 13G",
        "meta_object_id": "2022-146A",
        "meta_epoch": "2025-12-04T01:48:08.882784",
        "meta_mean_motion": 1.00271083,
        "meta_eccentricity": 0.0002144,
        "meta_inclination": 0.0481,
        "meta_ra_of_asc_node": 238.3515,
        "meta_arg_of_pericenter": 307.4733,
        "meta_mean_anomaly": 287.3658,
        "meta_ephemeris_type": 0,
        "meta_classification_type": "U",
        "meta_norad_cat_id": 54225,
        "meta_element_set_no": 999,
        "meta_rev_at_epoch": 551,
        "meta_bstar": 0,
        "meta_mean_motion_dot": 1.04e-06,
        "meta_mean_motion_ddot": 0,
        "tle_line1": "1 54225U 22146A   25338.07510281  .00000104  00000+0  00000+0 0  9991",
        "tle_line2": "2 54225   0.0481 238.3515 0002144 307.4733 287.3658  1.00271083  5510"
      },
      "geometry": {
        "type": "Point",
        "coordinates": [
          -126.61782622101747,
          -0.026309665655170667
        ]
      }
    }
  ]
}